{
  "type": "FeatureCollection",
  "features": [
    {
      "type": "Feature",
      "properties": {
        "norad_id": 25590,
        "name": "COSMOS 2361",
        "group": "musson",
        "lat": -8.305493617935468,
        "lon": -27.08271664637402,
        "alt_km": 1004.9671315683045,
        "timestamp": "2025-12-26T10:30:50.537344+00:00",
        "meta_object_name": "COSMOS 2361",
        "meta_object_id": "1998-076A",
        "meta_epoch": "2025-12-26T00:22:01.526880",
        "meta_mean_motion": 13.73218941,
        "meta_eccentricity": 0.0030355,
        "meta_inclination": 82.9346,
        "meta_ra_of_asc_node": 334.2672,
        "meta_arg_of_pericenter": 227.1925,
        "meta_mean_anomaly": 195.3497,
        "meta_ephemeris_type": 0,
        "meta_classification_type": "U",
        "meta_norad_cat_id": 25590,
        "meta_element_set_no": 999,
        "meta_rev_at_epoch": 35293,
        "meta_bstar": 5.6917e-05,
        "meta_mean_motion_dot": 6.8e-07,
        "meta_mean_motion_ddot": 0,
        "tle_line1": "1 25590U 98076A   25360.01529545  .00000068  00000+0  56917-4 0  9993",
        "tle_line2": "2 25590  82.9346 334.2672 0030355 227.1925 195.3497 13.73218941352935"
      },
      "geometry": {
        "type": "Point",
        "coordinates": [
          -27.08271664637402,
          -8.305493617935468
        ]
      }
    },
    {
      "type": "Feature",
      "properties": {
        "norad_id": 26818,
        "name": "COSMOS 2378",
        "group": "musson",
        "lat": 69.45865787748298,
        "lon": 150.21781541443877,
        "alt_km": 964.7049034891461,
        "timestamp": "2025-12-26T10:30:50.537364+00:00",
        "meta_object_name": "COSMOS 2378",
        "meta_object_id": "2001-023A",
        "meta_epoch": "2025-12-26T01:33:12.760128",
        "meta_mean_motion": 13.74143053,
        "meta_eccentricity": 0.0033248,
        "meta_inclination": 82.9272,
        "meta_ra_of_asc_node": 349.8438,
        "meta_arg_of_pericenter": 167.5875,
        "meta_mean_anomaly": 256.1209,
        "meta_ephemeris_type": 0,
        "meta_classification_type": "U",
        "meta_norad_cat_id": 26818,
        "meta_element_set_no": 999,
        "meta_rev_at_epoch": 23106,
        "meta_bstar": 4.0775e-05,
        "meta_mean_motion_dot": 5.4e-07,
        "meta_mean_motion_ddot": 0,
        "tle_line1": "1 26818U 01023A   25360.06473102  .00000054  00000+0  40775-4 0  9995",
        "tle_line2": "2 26818  82.9272 349.8438 0033248 167.5875 256.1209 13.74143053231063"
      },
      "geometry": {
        "type": "Point",
        "coordinates": [
          150.21781541443877,
          69.45865787748298
        ]
      }
    },
    {
      "type": "Feature",
      "properties": {
        "norad_id": 27436,
        "name": "COSMOS 2389",
        "group": "musson",
        "lat": 6.078274021080655,
        "lon": -62.400343932583944,
        "alt_km": 950.0801463362604,
        "timestamp": "2025-12-26T10:30:50.537378+00:00",
        "meta_object_name": "COSMOS 2389",
        "meta_object_id": "2002-026A",
        "meta_epoch": "2025-12-25T22:34:39.670752",
        "meta_mean_motion": 13.75156034,
        "meta_eccentricity": 0.0047036,
        "meta_inclination": 82.9514,
        "meta_ra_of_asc_node": 297.2128,
        "meta_arg_of_pericenter": 24.6878,
        "meta_mean_anomaly": 40.9448,
        "meta_ephemeris_type": 0,
        "meta_classification_type": "U",
        "meta_norad_cat_id": 27436,
        "meta_element_set_no": 999,
        "meta_rev_at_epoch": 18330,
        "meta_bstar": 6.172e-05,
        "meta_mean_motion_dot": 7.5e-07,
        "meta_mean_motion_ddot": 0,
        "tle_line1": "1 27436U 02026A   25359.94073693  .00000075  00000+0  61720-4 0  9998",
        "tle_line2": "2 27436  82.9514 297.2128 0047036  24.6878  40.9448 13.75156034183308"
      },
      "geometry": {
        "type": "Point",
        "coordinates": [
          -62.400343932583944,
          6.078274021080655
        ]
      }
    },
    {
      "type": "Feature",
      "properties": {
        "norad_id": 27818,
        "name": "COSMOS 2398",
        "group": "musson",
        "lat": -3.1505009016330643,
        "lon": 82.99473067782566,
        "alt_km": 1001.5929436459619,
        "timestamp": "2025-12-26T10:30:50.537390+00:00",
        "meta_object_name": "COSMOS 2398",
        "meta_object_id": "2003-023A",
        "meta_epoch": "2025-12-26T03:10:15.789216",
        "meta_mean_motion": 13.72387194,
        "meta_eccentricity": 0.0032681,
        "meta_inclination": 82.9482,
        "meta_ra_of_asc_node": 262.8298,
        "meta_arg_of_pericenter": 76.134,
        "meta_mean_anomaly": 35.8048,
        "meta_ephemeris_type": 0,
        "meta_classification_type": "U",
        "meta_norad_cat_id": 27818,
        "meta_element_set_no": 999,
        "meta_rev_at_epoch": 13000,
        "meta_bstar": 6.5421e-05,
        "meta_mean_motion_dot": 7.5e-07,
        "meta_mean_motion_ddot": 0,
        "tle_line1": "1 27818U 03023A   25360.13212719  .00000075  00000+0  65421-4 0  9999",
        "tle_line2": "2 27818  82.9482 262.8298 0032681  76.1340  35.8048 13.72387194130006"
      },
      "geometry": {
        "type": "Point",
        "coordinates": [
          82.99473067782566,
          -3.1505009016330643
        ]
      }
    },
    {
      "type": "Feature",
      "properties": {
        "norad_id": 28380,
        "name": "COSMOS 2407",
        "group": "musson",
        "lat": -31.592735082949943,
        "lon": 27.10911625791618,
        "alt_km": 1011.2544360683087,
        "timestamp": "2025-12-26T10:30:50.537402+00:00",
        "meta_object_name": "COSMOS 2407",
        "meta_object_id": "2004-028A",
        "meta_epoch": "2025-12-26T01:31:13.832256",
        "meta_mean_motion": 13.763151,
        "meta_eccentricity": 0.0039683,
        "meta_inclination": 82.9593,
        "meta_ra_of_asc_node": 203.0276,
        "meta_arg_of_pericenter": 18.3923,
        "meta_mean_anomaly": 137.8378,
        "meta_ephemeris_type": 0,
        "meta_classification_type": "U",
        "meta_norad_cat_id": 28380,
        "meta_element_set_no": 999,
        "meta_rev_at_epoch": 7606,
        "meta_bstar": 3.6024e-05,
        "meta_mean_motion_dot": 5.1e-07,
        "meta_mean_motion_ddot": 0,
        "tle_line1": "1 28380U 04028A   25360.06335454  .00000051  00000+0  36024-4 0  9995",
        "tle_line2": "2 28380  82.9593 203.0276 0039683  18.3923 137.8378 13.76315100 76067"
      },
      "geometry": {
        "type": "Point",
        "coordinates": [
          27.10911625791618,
          -31.592735082949943
        ]
      }
    },
    {
      "type": "Feature",
      "properties": {
        "norad_id": 28521,
        "name": "COSMOS 2414",
        "group": "musson",
        "lat": -34.042142030721614,
        "lon": 169.50478219310835,
        "alt_km": 963.8634382283826,
        "timestamp": "2025-12-26T10:30:50.537413+00:00",
        "meta_object_name": "COSMOS 2414",
        "meta_object_id": "2005-002A",
        "meta_epoch": "2025-12-26T00:17:54.606048",
        "meta_mean_motion": 13.87904624,
        "meta_eccentricity": 0.004143,
        "meta_inclination": 82.9488,
        "meta_ra_of_asc_node": 174.6231,
        "meta_arg_of_pericenter": 102.9062,
        "meta_mean_anomaly": 257.6734,
        "meta_ephemeris_type": 0,
        "meta_classification_type": "U",
        "meta_norad_cat_id": 28521,
        "meta_element_set_no": 999,
        "meta_rev_at_epoch": 5979,
        "meta_bstar": 4.6653e-05,
        "meta_mean_motion_dot": 7.2e-07,
        "meta_mean_motion_ddot": 0,
        "tle_line1": "1 28521U 05002A   25360.01243757  .00000072  00000+0  46653-4 0  9996",
        "tle_line2": "2 28521  82.9488 174.6231 0041430 102.9062 257.6734 13.87904624 59793"
      },
      "geometry": {
        "type": "Point",
        "coordinates": [
          169.50478219310835,
          -34.042142030721614
        ]
      }
    },
    {
      "type": "Feature",
      "properties": {
        "norad_id": 32052,
        "name": "COSMOS 2429",
        "group": "musson",
        "lat": -11.897993964767888,
        "lon": 154.69768085529523,
        "alt_km": 1013.15084269833,
        "timestamp": "2025-12-26T10:30:50.537424+00:00",
        "meta_object_name": "COSMOS 2429",
        "meta_object_id": "2007-038A",
        "meta_epoch": "2025-12-26T00:51:08.061408",
        "meta_mean_motion": 13.75150636,
        "meta_eccentricity": 0.0038445,
        "meta_inclination": 82.9809,
        "meta_ra_of_asc_node": 333.5069,
        "meta_arg_of_pericenter": 1.214,
        "meta_mean_anomaly": 358.9103,
        "meta_ephemeris_type": 0,
        "meta_classification_type": "U",
        "meta_norad_cat_id": 32052,
        "meta_element_set_no": 999,
        "meta_rev_at_epoch": 91785,
        "meta_bstar": 4.6145e-05,
        "meta_mean_motion_dot": 6e-07,
        "meta_mean_motion_ddot": 0,
        "tle_line1": "1 32052U 07038A   25360.03550997  .00000060  00000+0  46145-4 0  9993",
        "tle_line2": "2 32052  82.9809 333.5069 0038445   1.2140 358.9103 13.75150636917857"
      },
      "geometry": {
        "type": "Point",
        "coordinates": [
          154.69768085529523,
          -11.897993964767888
        ]
      }
    },
    {
      "type": "Feature",
      "properties": {
        "norad_id": 35635,
        "name": "COSMOS 2454",
        "group": "musson",
        "lat": 62.815753945070895,
        "lon": -35.66964430565116,
        "alt_km": 920.0943517547394,
        "timestamp": "2025-12-26T10:30:50.537434+00:00",
        "meta_object_name": "COSMOS 2454",
        "meta_object_id": "2009-039A",
        "meta_epoch": "2025-12-26T00:09:39.039840",
        "meta_mean_motion": 13.89930294,
        "meta_eccentricity": 0.0019949,
        "meta_inclination": 82.9559,
        "meta_ra_of_asc_node": 158.5879,
        "meta_arg_of_pericenter": 37.9318,
        "meta_mean_anomaly": 80.8204,
        "meta_ephemeris_type": 0,
        "meta_classification_type": "U",
        "meta_norad_cat_id": 35635,
        "meta_element_set_no": 999,
        "meta_rev_at_epoch": 83334,
        "meta_bstar": 5.4956e-05,
        "meta_mean_motion_dot": 8.4e-07,
        "meta_mean_motion_ddot": 0,
        "tle_line1": "1 35635U 09039A   25360.00670185  .00000084  00000+0  54956-4 0  9990",
        "tle_line2": "2 35635  82.9559 158.5879 0019949  37.9318  80.8204 13.89930294833349"
      },
      "geometry": {
        "type": "Point",
        "coordinates": [
          -35.66964430565116,
          62.815753945070895
        ]
      }
    },
    {
      "type": "Feature",
      "properties": {
        "norad_id": 36519,
        "name": "COSMOS 2463",
        "group": "musson",
        "lat": -23.49235186498908,
        "lon": 13.566918151322714,
        "alt_km": 997.9743105635289,
        "timestamp": "2025-12-26T10:30:50.537444+00:00",
        "meta_object_name": "COSMOS 2463",
        "meta_object_id": "2010-017A",
        "meta_epoch": "2025-12-26T03:57:12.978720",
        "meta_mean_motion": 13.71650325,
        "meta_eccentricity": 0.0034829,
        "meta_inclination": 82.9603,
        "meta_ra_of_asc_node": 16.8464,
        "meta_arg_of_pericenter": 249.4013,
        "meta_mean_anomaly": 177.5936,
        "meta_ephemeris_type": 0,
        "meta_classification_type": "U",
        "meta_norad_cat_id": 36519,
        "meta_element_set_no": 999,
        "meta_rev_at_epoch": 78421,
        "meta_bstar": 3.5999e-05,
        "meta_mean_motion_dot": 4.7e-07,
        "meta_mean_motion_ddot": 0,
        "tle_line1": "1 36519U 10017A   25360.16473355  .00000047  00000+0  35999-4 0  9992",
        "tle_line2": "2 36519  82.9603  16.8464 0034829 249.4013 177.5936 13.71650325784215"
      },
      "geometry": {
        "type": "Point",
        "coordinates": [
          13.566918151322714,
          -23.49235186498908
        ]
      }
    }
  ]
}